NORAD_CAT_ID,OBJECT_NAME,OBJECT_TYPE,EPOCH,MEAN_MOTION,ECCENTRICITY,INCLINATION,RA_OF_ASC_NODE,ARG_OF_PERICENTER,MEAN_ANOMALY,BSTAR,MEAN_MOTION_DOT,MEAN_MOTION_DDOT,TLE_LINE0,TLE_LINE1,TLE_LINE2,SEMIMAJOR_AXIS,PERIOD,APOGEE,PERIGEE,DECAYED
53790.0,STARLINK-4734,PAYLOAD,2023-01-04 11:12:21,15.08832852,0.0002393,53.2171,82.4365,31.3043,328.8092,4.7869e-05,4.73e-06,0.0,0 STARLINK-4734,1 53790U 22111T   23004.46691563  .00000473  00000-0  47869-4 0  9992,2 53790  53.2171  82.4365 0002393  31.3043 328.8092 15.08832852 17736,6917.901999999999,95.438,541.423,538.112,0.0
53790.0,STARLINK-4734,PAYLOAD,2023-01-04 12:47:44,15.08842953,0.0002421999999999,53.2177,82.14,34.3899,325.725,2.459e-05,1.03e-06,0.0,0 STARLINK-4734,1 53790U 22111T   23004.53315092  .00000103  00000-0  24590-4 0  9996,2 53790  53.2177  82.1400 0002422  34.3899 325.7250 15.08842953 18550,6917.871,95.437,541.4119999999998,538.061,0.0
53790.0,STARLINK-4734,PAYLOAD,2023-01-04 22:20:01,15.08855668,0.0002367,53.2178,80.3551,31.4062,328.7071,0.0001538,2.161e-05,0.0,0 STARLINK-4734,1 53790U 22111T   23004.93057471  .00002161  00000-0  15380-3 0  9996,2 53790  53.2178  80.3551 0002367  31.4062 328.7071 15.08855668 17804,6917.831999999999,95.437,541.335,538.06,0.0
53790.0,STARLINK-4734,PAYLOAD,2023-01-05 11:03:06,15.08860278,0.0002484,53.2183,77.9782,33.8347,326.2804,9.9892e-05,1.303e-05,0.0,0 STARLINK-4734,1 53790U 22111T   23005.46048874  .00001303  00000-0  99892-4 0  9990,2 53790  53.2183  77.9782 0002484  33.8347 326.2804 15.08860278 18698,6917.818,95.436,541.4019999999998,537.965,0.0
53790.0,STARLINK-4734,PAYLOAD,2023-01-05 14:13:52,15.08864349,0.0002353,53.2175,77.3831,32.6116,327.5021,5.7288e-05,6.24e-06,0.0,0 STARLINK-4734,1 53790U 22111T   23005.59296555  .00000624  00000-0  57288-4 0  9993,2 53790  53.2175  77.3831 0002353  32.6116 327.5021 15.08864349 18715,6917.806,95.436,541.299,538.043,0.0
53790.0,STARLINK-4734,PAYLOAD,2023-01-06 14:04:42,15.08819492,0.0002571,53.2183,72.9222,33.4078,326.7076,-0.00025856,-4.399e-05,0.0,0 STARLINK-4734,1 53790U 22111T   23006.58660270 -.00004399  00000-0 -25856-3 0  9992,2 53790  53.2183  72.9222 0002571  33.4078 326.7076 15.08819492 18054,6917.943,95.439,541.587,538.029,0.0
53790.0,STARLINK-4734,PAYLOAD,2023-01-07 04:23:09,15.08834802,0.0002354,53.2172,70.2452,23.9898,336.1203,-0.00019703,-3.422e-05,0.0,0 STARLINK-4734,1 53790U 22111T   23007.18275142 -.00003422  00000-0 -19703-3 0  9999,2 53790  53.2172  70.2452 0002354  23.9898 336.1203 15.08834802 18140,6917.896,95.438,541.39,538.133,0.0
53790.0,STARLINK-4734,PAYLOAD,2023-01-07 10:44:41,15.08840941,0.0002547,53.2168,69.0558,36.3256,323.7909,-0.00013306,-2.406e-05,0.0,0 STARLINK-4734,1 53790U 22111T   23007.44770528 -.00002406  00000-0 -13306-3 0  9990,2 53790  53.2168  69.0558 0002547  36.3256 323.7909 15.08840941 18188,6917.8780000000015,95.437,541.504,537.981,0.0
53790.0,STARLINK-4734,PAYLOAD,2023-01-08 04:13:57,15.08820623,0.0002385,53.219,65.7863,12.729,347.3762,-1.8352e-05,-5.8e-06,0.0,0 STARLINK-4734,1 53790U 22111T   23008.17635714 -.00000580  00000-0 -18352-4 0  9996,2 53790  53.2190  65.7863 0002385  12.7290 347.3762 15.08820623 18297,6917.94,95.439,541.455,538.155,0.0
53790.0,STARLINK-4734,PAYLOAD,2023-01-08 10:35:29,15.08826625,0.0003164,53.2186,64.5964,334.4595,25.624,3.789e-05,3.14e-06,0.0,0 STARLINK-4734,1 53790U 22111T   23008.44131478  .00000314  00000-0  37890-4 0  9995,2 53790  53.2186  64.5964 0003164 334.4595  25.6240 15.08826625 19149,6917.920999999999,95.438,541.975,537.597,0.0
53790.0,STARLINK-4734,PAYLOAD,2023-01-08 20:07:48,15.0882648,0.0002601,53.2181,62.8124,30.2979,329.8163,0.00016446,2.329e-05,0.0,0 STARLINK-4734,1 53790U 22111T   23008.83875385  .00002329  00000-0  16446-3 0  9991,2 53790  53.2181  62.8124 0002601  30.2979 329.8163 15.08826480 18393,6917.922,95.438,541.586,537.987,0.0
53790.0,STARLINK-4734,PAYLOAD,2023-01-09 10:26:16,15.08839021,0.0002637,53.2185,60.1355,32.5919,327.5235,-3.9068e-06,-3.51e-06,0.0,0 STARLINK-4734,1 53790U 22111T   23009.43491460 -.00000351  00000-0 -39068-5 0  9998,2 53790  53.2185  60.1355 0002637  32.5919 327.5235 15.08839021 19292,6917.883000000002,95.438,541.573,537.924,0.0
53790.0,STARLINK-4734,PAYLOAD,2023-01-10 08:41:40,15.08840496,0.0002609,53.2178,55.9716,31.024,329.0906,-8.229400000000001e-06,-4.19e-06,0.0,0 STARLINK-4734,1 53790U 22111T   23010.36227438 -.00000419  00000-0 -82294-5 0  9998,2 53790  53.2178  55.9716 0002609  31.0240 329.0906 15.08840496 18623,6917.879,95.438,541.549,537.939,0.0
53790.0,STARLINK-4734,PAYLOAD,2023-01-10 11:52:26,15.08839036,0.000262,53.2187,55.3776,27.1313,332.9815,-1.8331e-05,-5.8e-06,0.0,0 STARLINK-4734,1 53790U 22111T   23010.49475564 -.00000580  00000-0 -18331-4 0  9996,2 53790  53.2187  55.3776 0002620  27.1313 332.9815 15.08839036 19455,6917.883000000002,95.438,541.561,537.936,0.0
53790.0,STARLINK-4734,PAYLOAD,2023-01-11 11:43:13,15.08845413,0.0002545,53.2179,50.9159,30.3773,329.7367,4.0362e-05,3.54e-06,0.0,0 STARLINK-4734,1 53790U 22111T   23011.48835335  .00000354  00000-0  40362-4 0  9998,2 53790  53.2179  50.9159 0002545  30.3773 329.7367 15.08845413 18792,6917.864000000001,95.437,541.489,537.9680000000002,0.0
53790.0,STARLINK-4734,PAYLOAD,2023-01-11 19:40:09,15.08839188,0.0002589,53.2181,49.4296,31.9447,328.1702,-4.0972e-05,-9.41e-06,0.0,0 STARLINK-4734,1 53790U 22111T   23011.81955921 -.00000941  00000-0 -40972-4 0  9990,2 53790  53.2181  49.4296 0002589  31.9447 328.1702 15.08839188 19657,6917.883000000002,95.438,541.539,537.957,0.0
53790.0,STARLINK-4734,PAYLOAD,2023-01-12 19:30:57,15.08836333,0.0002554,53.2173,44.9704,37.4041,322.7128,-1.8255e-06,-3.18e-06,0.0,0 STARLINK-4734,1 53790U 22111T   23012.81316066 -.00000318  00000-0 -18255-5 0  9990,2 53790  53.2173  44.9704 0002554  37.4041 322.7128 15.08836333 19803,6917.892,95.438,541.523,537.99,0.0
53790.0,STARLINK-4734,PAYLOAD,2023-01-13 09:49:25,15.08841912,0.0002384999999999,53.2184,42.2914,47.1597,312.9595,-3.2894e-05,-8.12e-06,0.0,0 STARLINK-4734,1 53790U 22111T   23013.40932266 -.00000812  00000-0 -32894-4 0  9995,2 53790  53.2184  42.2914 0002385  47.1597 312.9595 15.08841912 19083,6917.875,95.437,541.389,538.09,0.0
53790.0,STARLINK-4734,PAYLOAD,2023-01-13 19:21:44,15.0884054,0.0002445,53.2182,40.5081,46.886,313.2336,-4.0698e-05,-9.36e-06,0.0,0 STARLINK-4734,1 53790U 22111T   23013.80676369 -.00000936  00000-0 -40698-4 0  9996,2 53790  53.2182  40.5081 0002445  46.8860 313.2336 15.08840540 19952,6917.879,95.438,541.435,538.052,0.0
53790.0,STARLINK-4734,PAYLOAD,2023-01-14 11:15:35,15.08850361,0.0002355999999999,53.2186,37.5347,50.3917,309.7282,3.1924e-05,2.2e-06,0.0,0 STARLINK-4734,1 53790U 22111T   23014.46915693  .00000220  00000-0  31924-4 0  9991,2 53790  53.2186  37.5347 0002356  50.3917 309.7282 15.08850361 19245,6917.849,95.437,541.344,538.0840000000001,0.0
53790.0,STARLINK-4734,PAYLOAD,2023-01-15 01:34:05,15.08826658,0.0002011,53.2189,34.8578,59.5835,300.5356,-5.7451e-05,-1.202e-05,0.0,0 STARLINK-4734,1 53790U 22111T   23015.06533630 -.00001202  00000-0 -57451-4 0  9991,2 53790  53.2189  34.8578 0002011  59.5835 300.5356 15.08826658 19335,6917.920999999999,95.438,541.177,538.395,0.0
53790.0,STARLINK-4734,PAYLOAD,2023-01-15 07:55:37,15.08834404,0.0002349,53.2178,33.67,61.4261,298.6968,2.0197e-05,3.3e-07,0.0,0 STARLINK-4734,1 53790U 22111T   23015.33029121  .00000033  00000-0  20197-4 0  9992,2 53790  53.2178  33.6700 0002349  61.4261 298.6968 15.08834404 19374,6917.897,95.438,541.388,538.137,0.0
53790.0,STARLINK-4734,PAYLOAD,2023-01-15 17:27:55,15.08837504,0.0002393,53.2179,31.8865,62.1888,297.9347,-1.3777e-05,-5.08e-06,0.0,0 STARLINK-4734,1 53790U 22111T   23015.72773055 -.00000508  00000-0 -13777-4 0  9992,2 53790  53.2179  31.8865 0002393  62.1888 297.9347 15.08837504 20244,6917.888000000001,95.438,541.408,538.0980000000001,0.0
53790.0,STARLINK-4734,PAYLOAD,2023-01-16 06:10:59,15.08846933,0.0002228,53.2183,29.5059,55.7534,304.3669,0.00011332,1.516e-05,0.0,0 STARLINK-4734,1 53790U 22111T   23016.25763852  .00001516  00000-0  11332-3 0  9997,2 53790  53.2183  29.5059 0002228  55.7534 304.3669 15.08846933 19515,6917.859,95.437,541.265,538.183,0.0
53790.0,STARLINK-4734,PAYLOAD,2023-01-16 07:46:21,15.08868518,0.000208,53.2191,29.21,65.8992,294.2217,0.00025925,3.843e-05,0.0,0 STARLINK-4734,1 53790U 22111T   23016.32385900  .00003843  00000-0  25925-3 0  9997,2 53790  53.2191  29.2100 0002080  65.8992 294.2217 15.08868518 19524,6917.793000000001,95.436,541.097,538.219,0.0
53790.0,STARLINK-4734,PAYLOAD,2023-01-17 01:15:38,15.08832091,0.0001551,53.2186,25.938,70.0551,290.0608,-4.4279e-05,-9.92e-06,0.0,0 STARLINK-4734,1 53790U 22111T   23017.05253168 -.00000992  00000-0 -44279-4 0  9996,2 53790  53.2186  25.9380 0001551  70.0551 290.0608 15.08832091 19639,6917.905,95.438,540.8430000000001,538.697,0.0
53790.0,STARLINK-4734,PAYLOAD,2023-01-17 07:37:12,15.08822001,0.0001439,53.2186,24.7483,56.2648,303.8481,-0.00012383,-2.257e-05,0.0,0 STARLINK-4734,1 53790U 22111T   23017.31750232 -.00002257  00000-0 -12383-3 0  9995,2 53790  53.2186  24.7483 0001439  56.2648 303.8481 15.08822001 19674,6917.935,95.439,540.7959999999999,538.805,0.0
53790.0,STARLINK-4734,PAYLOAD,2023-01-17 17:09:31,15.08824416,0.0001631999999999,53.2187,22.9652,74.7774,285.3399,-0.00014532,-2.599e-05,0.0,0 STARLINK-4734,1 53790U 22111T   23017.71494489 -.00002599  00000-0 -14532-3 0  9995,2 53790  53.2187  22.9652 0001632  74.7774 285.3399 15.08824416 20545,6917.928000000001,95.439,540.922,538.664,0.0
53790.0,STARLINK-4734,PAYLOAD,2023-01-18 09:03:21,15.088513699999998,0.0001834,53.2193,19.9925,86.8447,273.2755,-0.00019177,-3.34e-05,0.0,0 STARLINK-4734,1 53790U 22111T   23018.37733312 -.00003340  00000-0 -19177-3 0  9994,2 53790  53.2193  19.9925 0001834  86.8447 273.2755 15.08851370 19837,6917.846,95.437,540.979,538.442,0.0
